satname,norad_id,inclination_deg,eccentricity,mean_motion_rev_per_day,perigee_km,apogee_km,l1,l2
STARLINK-1454,45671,53.0534,0.0001444,15.0640296,546.2024669576749,548.2025050012262,1 45671U 20035Q   25263.87162745  .00003633  00000+0  26263-3 0  9997,2 45671  53.0534 108.9626 0001444  91.4372 268.6782 15.06402960293125
STARLINK-1456,45673,53.0541,0.0001382,15.06398878,546.2579130628692,548.1720803547605,1 45673U 20035S   25264.28444066 -.00000619  00000+0 -22695-4 0  9993,2 45673  53.0541 107.1108 0001382  89.7619 270.3528 15.06398878293205
STARLINK-1457,45674,53.0535,0.0001316,15.06407284,546.277860684977,548.1006065496658,1 45674U 20035T   25264.29180165  .00003719  00000+0  26840-3 0  9999,2 45674  53.0535 107.0756 0001316  87.0281 273.0859 15.06407284293175
STARLINK-1458,45675,53.0554,0.0001609,15.06379434,546.160291758445,548.3888892082623,1 45675U 20035U   25263.88269419 -.00001258  00000+0 -65580-4 0  9997,2 45675  53.0554 108.9118 0001609  97.4645 262.6527 15.06379434293107
STARLINK-1460,45676,53.0528,0.0001283,15.06408885,546.2958081005654,548.0728455530289,1 45676U 20035V   25263.98587852  .00002856  00000+0  21050-3 0  9999,2 45676  53.0528 108.4479 0001283  87.8164 272.2972 15.06408885293116
STARLINK-1392,45677,53.0554,0.0001358,15.06401248,546.2672711859213,548.1481948154051,1 45677U 20035W   25264.26233217  .00001647  00000+0  12943-3 0  9993,2 45677  53.0554 107.2092 0001358 101.8330 258.2812 15.06401248293190
STARLINK-1394,45679,53.053,0.000117,15.06389468,546.4335676315077,548.0541067474096,1 45679U 20035Y   25264.25955666  .00002565  00000+0  19106-3 0  9991,2 45679  53.0530  97.2202 0001170  93.6816 266.4307 15.06389468293331
STARLINK-1402,45685,53.055,0.0001362,15.06397421,546.2762286629568,548.1626957632634,1 45685U 20035AE  25264.22398881  .00002077  00000+0  15827-3 0  9999,2 45685  53.0550  91.8009 0001362  93.6021 266.5124 15.06397421293411
STARLINK-1404,45686,53.0541,0.0001449,15.06397047,546.2171241552842,548.2240927902203,1 45686U 20035AF  25263.82093899 -.00000124  00000+0  10605-4 0  9998,2 45686  53.0541  99.1920 0001449  91.9807 268.1348 15.06397047293278
STARLINK-1413,45689,53.0532,0.0001435,15.06412001,546.1809946059466,548.1685590859015,1 45689U 20035AJ  25264.50282373  .00003238  00000+0  23609-3 0  9999,2 45689  53.0532  96.1252 0001435  91.4342 268.6812 15.06412001293280
STARLINK-1417,45693,53.0538,0.0001397,15.06402971,546.2349823446639,548.169922187627,1 45693U 20035AN  25264.23375862  .00001103  00000+0  92923-4 0  9995,2 45693  53.0538  97.3375 0001397  92.8110 267.3039 15.06402971293322
STARLINK-1420,45695,53.0549,0.0001343,15.06400108,546.2811526669739,548.1413012007288,1 45695U 20035AQ  25264.50003736  .00002274  00000+0  17149-3 0  9991,2 45695  53.0549  76.1309 0001343  86.1685 273.9457 15.06400108293655
STARLINK-1422,45696,53.0541,0.0001335,15.06388635,546.3218515628123,548.1709289280079,1 45696U 20035AR  25264.24481232 -.00002764  00000+0 -16682-3 0  9991,2 45696  53.0541  97.2884 0001335 105.4915 254.6222 15.06388635293322
STARLINK-1351,45697,53.0551,0.0001218,15.06403551,546.3571685273209,548.0441807848674,1 45697U 20035AS  25264.48623669  .00001519  00000+0  12081-3 0  9994,2 45697  53.0551  76.2015 0001218  89.9221 270.1908 15.06403551293658
STARLINK-1398,45699,53.0525,0.0004317,15.4351969,432.789599075807,438.6726928330254,1 45699U 20035AU  25264.58335648  .00097997  00000+0  21326-2 0  9990,2 45699  53.0525  46.7546 0004317 160.0296 244.5734 15.43519690  5946
STARLINK-1400,45700,53.0543,0.0001405,15.06404572,546.2245359485714,548.1705549558437,1 45700U 20035AV  25264.46045114  .00004178  00000+0  29915-3 0  9998,2 45700  53.0543  76.3197 0001405  94.8820 265.2330 15.06404572293641
STARLINK-1403,45701,53.0554,0.0001308,15.0639437,546.3229752827929,548.1346509795085,1 45701U 20035AW  25264.62263198  .00002016  00000+0  15421-3 0  9997,2 45701  53.0554  75.5904 0001308  82.9062 277.2076 15.06394370293665
STARLINK-1407,45703,53.045,0.0007313,15.34550442,457.25375191277,467.2585109067704,1 45703U 20035AY  25264.64383867  .00139989  00000+0  40555-2 0  9992,2 45703  53.0450  42.9253 0007313 235.1623 124.8691 15.34550442294132
STARLINK-1411,45706,53.0565,5.38e-05,15.28632605,479.53006443023423,480.2679891067146,1 45706U 20035BB  25264.58335648  .00083710  00000+0  29451-2 0  9994,2 45706  53.0565  69.4842 0000538  82.4111 303.9840 15.28632605  5789
STARLINK-1423,45710,53.0551,0.0001359,15.06404822,546.2556263815968,548.1379321027953,1 45710U 20035BF  25264.18399003  .00001223  00000+0  10097-3 0  9996,2 45710  53.0551  77.5609 0001359  91.3181 268.7964 15.06404822293607
STARLINK-1433,45711,53.0534,0.0001326,15.06409462,546.2642610494004,548.1008557962932,1 45711U 20035BG  25264.49731064  .00004207  00000+0  30110-3 0  9991,2 45711  53.0534  76.1526 0001326  94.4442 265.6698 15.06409462293649
STARLINK-1434,45712,53.052,0.0003842,15.11350875,529.4243707746809,534.734180961058,1 45712U 20035BH  25264.18678198  .00036686  00000+0  21567-2 0  9997,2 45712  53.0520  75.7202 0003842 114.7151 245.4241 15.11350875293637
STARLINK-1465,45731,53.0544,0.0001268,15.06390101,546.3637590695462,548.1200351578555,1 45731U 20038B   25264.33143940  .00001624  00000+0  12791-3 0  9994,2 45731  53.0544 276.8975 0001268  83.8073 276.3061 15.06390101290667
STARLINK-1471,45735,53.051,0.0003411,15.38234183,449.0013866386789,453.6604496524369,1 45735U 20038F   25264.31126070  .00020835  00000+0  55375-3 0  9991,2 45735  53.0510 226.7431 0003411  53.1284 307.0031 15.38234183291371
STARLINK-1474,45738,53.0395,0.0006413,15.6024949,382.5973690441833,391.2742514305937,1 45738U 20038J   25264.58335648  .00167461  00000+0  19782-2 0  9994,2 45738  53.0395 189.6939 0006413 117.3354 282.9630 15.60249490  5888
STARLINK-1475,45739,53.0544,0.000864,15.59217508,384.0728951903384,395.76809854492603,1 45739U 20038K   25264.42819264  .00155112  00000+0  19078-2 0  9997,2 45739  53.0544 158.1325 0008640  84.4969 275.7028 15.59217508292359
STARLINK-1480,45741,53.0531,0.0001282,15.06409349,546.2950787361806,548.0707307597586,1 45741U 20038M   25264.44570540  .00001418  00000+0  11405-3 0  9999,2 45741  53.0531 276.3877 0001282  96.8521 263.2614 15.06409349290695
STARLINK-1500,45744,53.0384,0.0005785,15.25234237,486.10889034669253,494.0554199091757,1 45744U 20038Q   25264.42838959  .00062020  00000+0  24280-2 0  9991,2 45744  53.0384 260.9583 0005785  71.2140 288.9484 15.25234237290909
